[{"OBJECT_NAME":"DONGPO 08","OBJECT_ID":"2022-167E","EPOCH":"2026-03-09T22:57:52.742880","MEAN_MOTION":15.31542505,"ECCENTRICITY":0.00092155,"INCLINATION":97.6764,"RA_OF_ASC_NODE":233.3854,"ARG_OF_PERICENTER":153.9158,"MEAN_ANOMALY":206.2548,"EPHEMERIS_TYPE":0,"CLASSIFICATION_TYPE":"U","NORAD_CAT_ID":54686,"ELEMENT_SET_NO":999,"REV_AT_EPOCH":18012,"BSTAR":0.0004734784,"MEAN_MOTION_DOT":0.0001437,"MEAN_MOTION_DDOT":0},{"OBJECT_NAME":"STARLINK-32441","OBJECT_ID":"2024-193H","EPOCH":"2026-03-09T08:29:21.978240","MEAN_MOTION":15.30192515,"ECCENTRICITY":0.00011818,"INCLINATION":53.1604,"RA_OF_ASC_NODE":92.6773,"ARG_OF_PERICENTER":107.0452,"MEAN_ANOMALY":253.0678,"EPHEMERIS_TYPE":0,"CLASSIFICATION_TYPE":"U","NORAD_CAT_ID":61668,"ELEMENT_SET_NO":999,"REV_AT_EPOCH":7647,"BSTAR":3.271682e-5,"MEAN_MOTION_DOT":6.1e-6,"MEAN_MOTION_DDOT":0}]
